NORAD_CAT_ID,OBJECT_NAME,OBJECT_TYPE,EPOCH,MEAN_MOTION,ECCENTRICITY,INCLINATION,RA_OF_ASC_NODE,ARG_OF_PERICENTER,MEAN_ANOMALY,BSTAR,MEAN_MOTION_DOT,MEAN_MOTION_DDOT,TLE_LINE0,TLE_LINE1,TLE_LINE2,SEMIMAJOR_AXIS,PERIOD,APOGEE,PERIGEE,DECAYED
52477.0,STARLINK-3860,PAYLOAD,2022-05-23 04:00:00,15.73256653,0.000223,53.2158,183.3436,24.8094,306.7978,-0.00012537,-0.00018223,0.0,0 STARLINK-3860,1 52477U 22049AC  22143.16667824 -.00018223  00000-0 -12537-3 0  9993,2 52477  53.2158 183.3436 0002230  24.8094 306.7978 15.73256653  2817,6727.734,91.53,351.099,348.098,0.0
52477.0,STARLINK-3860,PAYLOAD,2022-05-23 14:00:01,15.73210228,0.0002452,53.215,181.2836,19.0277,153.7939,-0.00039948,-0.00056345,0.0,0 STARLINK-3860,1 52477U 22049AC  22143.58334491 -.00056345  00000-0 -39948-3 0  9992,2 52477  53.2150 181.2836 0002452  19.0277 153.7939 15.73210228  1303,6727.866,91.533,351.381,348.081,0.0
52477.0,STARLINK-3860,PAYLOAD,2022-05-23 16:00:00,15.73218118,0.0002396,53.2149,180.8707,17.9876,267.0641,-0.00071753,-0.00100225,0.0,0 STARLINK-3860,1 52477U 22049AC  22143.66667824 -.00100225  00000-0 -71753-3 0  9997,2 52477  53.2149 180.8707 0002396  17.9876 267.0641 15.73218118  2881,6727.844,91.532,351.321,348.097,0.0
52477.0,STARLINK-3860,PAYLOAD,2022-05-23 20:00:01,15.73207691,0.00025,53.2173,180.048,26.5381,122.7422,-2.1012e-05,-3.571e-05,0.0,0 STARLINK-3860,1 52477U 22049AC  22143.83334491 -.00003571  00000-0 -21012-4 0  9997,2 52477  53.2173 180.0480 0002500  26.5381 122.7422 15.73207691  2914,6727.873000000001,91.533,351.42,348.056,0.0
52477.0,STARLINK-3860,PAYLOAD,2022-05-23 22:00:01,15.732052,0.0002428,53.2174,179.6353,29.3848,232.1974,-6.120700000000001e-06,-1.481e-05,0.0,0 STARLINK-3860,1 52477U 22049AC  22143.91668981 -.00001481  00000-0 -61207-5 0  9999,2 52477  53.2174 179.6353 0002428  29.3848 232.1974 15.73205200  1300,6727.88,91.533,351.379,348.112,0.0
52477.0,STARLINK-3860,PAYLOAD,2022-05-24 02:59:27,15.73224444,0.0003238,53.2154,178.602,350.7804,9.3157,9.4047e-05,0.00012612,0.0,0 STARLINK-3860,1 52477U 22049AC  22144.12461922  .00012612  00000-0  94047-4 0  9992,2 52477  53.2154 178.6020 0003238 350.7804   9.3157 15.73224444  2962,6727.825,91.532,351.869,347.51199999999994,0.0
52477.0,STARLINK-3860,PAYLOAD,2022-05-24 13:39:49,15.73203925,0.0002393,53.2153,176.4017,21.5277,338.5843,7.171900000000003e-06,3.85e-06,0.0,0 STARLINK-3860,1 52477U 22049AC  22144.56931868  .00000385  00000-0  71719-5 0  9997,2 52477  53.2153 176.4017 0002393  21.5277 338.5843 15.73203925  4110,6727.884,91.533,351.3590000000001,348.139,0.0
52477.0,STARLINK-3860,PAYLOAD,2022-05-24 14:00:01,15.73196,0.0002525,53.2153,176.3352,20.2293,59.3654,4.8777e-05,6.228e-05,0.0,0 STARLINK-3860,1 52477U 22049AC  22144.58334491  .00006228  00000-0  48777-4 0  9997,2 52477  53.2153 176.3352 0002525  20.2293  59.3654 15.73196000  3035,6727.906999999997,91.533,351.47,348.0730000000001,0.0
52477.0,STARLINK-3860,PAYLOAD,2022-05-24 22:00:00,15.73157277,0.0002276,53.2155,174.6835,20.8776,147.6673,0.00043311,0.00060495,0.0,0 STARLINK-3860,1 52477U 22049AC  22144.91667824  .00060495  00000-0  43311-3 0  9997,2 52477  53.2155 174.6835 0002276  20.8776 147.6673 15.73157277  1302,6728.017,91.536,351.413,348.351,0.0
52477.0,STARLINK-3860,PAYLOAD,2022-05-25 12:00:00,15.7314254,0.0002694,53.2153,171.7993,25.4341,208.6986,0.00071187,0.00100248,0.0,0 STARLINK-3860,1 52477U 22049AC  22145.50001157  .00100248  00000-0  71187-3 0  9997,2 52477  53.2153 171.7993 0002694  25.4341 208.6986 15.73142540  3175,6728.059,91.537,351.737,348.111,0.0
52477.0,STARLINK-3860,PAYLOAD,2022-05-25 14:00:01,15.73166614,0.0002679,53.2148,171.3867,24.5424,321.8066,0.00055487,0.00077873,0.0,0 STARLINK-3860,1 52477U 22049AC  22145.58334491  .00077873  00000-0  55487-3 0  9997,2 52477  53.2148 171.3867 0002679  24.5424 321.8066 15.73166614  1308,6727.99,91.535,351.658,348.05300000000005,0.0
52477.0,STARLINK-3860,PAYLOAD,2022-05-25 22:00:00,15.73226289,0.0002318,53.2148,169.7351,25.9158,49.3699,-1.6509e-05,-2.941e-05,0.0,0 STARLINK-3860,1 52477U 22049AC  22145.91667824 -.00002941  00000-0 -16509-4 0  9992,2 52477  53.2148 169.7351 0002318  25.9158  49.3699 15.73226289  1305,6727.82,91.532,351.245,348.126,0.0
52477.0,STARLINK-3860,PAYLOAD,2022-05-26 05:18:19,15.73135082,0.0001999,53.2152,168.2291,34.6102,325.5048,-0.00028508,-0.00040331,0.0,0 STARLINK-3860,1 52477U 22049AC  22146.22106227 -.00040331  00000-0 -28508-3 0  9998,2 52477  53.2152 168.2291 0001999  34.6102 325.5048 15.73135082  3294,6728.08,91.537,351.29,348.6,0.0
52477.0,STARLINK-3860,PAYLOAD,2022-05-26 06:00:00,15.73211002,0.0002356,53.215,168.0868,22.855,141.3867,0.00014589,0.00019913,0.0,0 STARLINK-3860,1 52477U 22049AC  22146.25001157  .00019913  00000-0  14589-3 0  9991,2 52477  53.2150 168.0868 0002356  22.8550 141.3867 15.73211002  3294,6727.864000000001,91.533,351.314,348.144,0.0
52477.0,STARLINK-3860,PAYLOAD,2022-05-26 12:55:42,15.73205732,0.0002432,53.2151,166.6565,31.8382,328.2784,2.3685e-05,2.704e-05,0.0,0 STARLINK-3860,1 52477U 22049AC  22146.53869000  .00002704  00000-0  23685-4 0  9999,2 52477  53.2151 166.6565 0002432  31.8382 328.2784 15.73205732  3344,6727.879,91.533,351.38,348.108,0.0
52477.0,STARLINK-3860,PAYLOAD,2022-05-26 14:00:01,15.732124,0.0002487,53.2147,166.438,18.338,234.8511,-7.2602e-05,-0.00010805,0.0,0 STARLINK-3860,1 52477U 22049AC  22146.58334491 -.00010805  00000-0 -72602-4 0  9991,2 52477  53.2147 166.4380 0002487  18.3380 234.8511 15.73212400  1304,6727.86,91.532,351.398,348.052,0.0
52477.0,STARLINK-3860,PAYLOAD,2022-05-26 22:00:00,15.7316879,0.0002301,53.215,164.7863,22.2147,319.9228,0.00012833,0.00017404,0.0,0 STARLINK-3860,1 52477U 22049AC  22146.91667824  .00017404  00000-0  12833-3 0  9996,2 52477  53.2150 164.7863 0002301  22.2147 319.9228 15.73168790  1307,6727.984,91.535,351.397,348.301,0.0
52477.0,STARLINK-3860,PAYLOAD,2022-05-27 02:00:01,15.73197836,0.0002299,53.2153,163.9618,25.08,181.5023,-0.00026602,-0.00037789,0.0,0 STARLINK-3860,1 52477U 22049AC  22147.08334491 -.00037789  00000-0 -26602-3 0  9995,2 52477  53.2153 163.9618 0002299  25.0800 181.5023 15.73197836  3426,6727.901,91.533,351.31300000000016,348.22,0.0
52477.0,STARLINK-3860,PAYLOAD,2022-05-27 14:00:01,15.73144673,0.0002546,53.2143,161.4893,20.047,139.8591,0.00028239,0.00039106,0.0,0 STARLINK-3860,1 52477U 22049AC  22147.58334491  .00039106  00000-0  28239-3 0  9991,2 52477  53.2143 161.4893 0002546  20.0470 139.8591 15.73144673  1308,6728.053000000001,91.536,351.631,348.205,0.0
52477.0,STARLINK-3860,PAYLOAD,2022-05-27 16:00:00,15.73011496,0.0002563999999999,53.2165,161.0778,23.4223,248.7221,0.0019213,0.00275841,0.0,0 STARLINK-3860,1 52477U 22049AC  22147.66667824  .00275841  00000-0  19213-2 0  9998,2 52477  53.2165 161.0778 0002564  23.4223 248.7221 15.73011496  3514,6728.433000000001,91.544,352.023,348.57199999999995,0.0
52477.0,STARLINK-3860,PAYLOAD,2022-05-27 22:00:01,15.73206022,0.0002358,53.2173,159.8397,24.8046,223.9887,-1.6542000000000002e-05,-2.943e-05,0.0,0 STARLINK-3860,1 52477U 22049AC  22147.91668981 -.00002943  00000-0 -16542-4 0  9998,2 52477  53.2173 159.8397 0002358  24.8046 223.9887 15.73206022  3552,6727.878000000002,91.533,351.329,348.157,0.0
52477.0,STARLINK-3860,PAYLOAD,2022-05-28 14:00:01,15.73324617,0.0002479,53.2143,156.5404,19.3287,47.4009,-0.00051094,-0.00072111,0.0,0 STARLINK-3860,1 52477U 22049AC  22148.58334491 -.00072111  00000-0 -51094-3 0  9992,2 52477  53.2143 156.5404 0002479  19.3287  47.4009 15.73324617  3660,6727.54,91.526,351.0730000000001,347.737,0.0
52477.0,STARLINK-3860,PAYLOAD,2022-05-28 22:00:00,15.73261815,0.0002207,53.2146,154.8886,20.8657,134.91899999999998,-0.00010321,-0.00015121,0.0,0 STARLINK-3860,1 52477U 22049AC  22148.91667824 -.00015121  00000-0 -10321-3 0  9994,2 52477  53.2146 154.8886 0002207  20.8657 134.9190 15.73261815  1307,6727.719,91.53,351.069,348.099,0.0
52477.0,STARLINK-3860,PAYLOAD,2022-05-29 03:26:22,15.73264832,0.0002309,53.2145,153.7667,23.7949,336.3178,9.6966e-05,0.00013047,0.0,0 STARLINK-3860,1 52477U 22049AC  22149.14331556  .00013047  00000-0  96966-4 0  9993,2 52477  53.2145 153.7667 0002309  23.7949 336.3178 15.73264832  3757,6727.71,91.529,351.129,348.022,0.0
52477.0,STARLINK-3860,PAYLOAD,2022-05-29 14:00:01,15.73173517,0.0002438,53.2141,151.5912,15.3887,318.2815,-0.0005384,-0.00075436,0.0,0 STARLINK-3860,1 52477U 22049AC  22149.58334491 -.00075436  00000-0 -53840-3 0  9997,2 52477  53.2141 151.5912 0002438  15.3887 318.2815 15.73173517  3827,6727.971,91.535,351.476,348.195,0.0
52477.0,STARLINK-3860,PAYLOAD,2022-05-29 22:00:00,15.73091286,0.0002182,53.2143,149.9399,22.5857,39.9641,0.00057403,0.00080343,0.0,0 STARLINK-3860,1 52477U 22049AC  22149.91667824  .00080343  00000-0  57403-3 0  9993,2 52477  53.2143 149.9399 0002182  22.5857  39.9641 15.73091286  1309,6728.205,91.54,351.538,348.602,0.0
52477.0,STARLINK-3860,PAYLOAD,2022-05-30 06:00:00,15.73142343,0.0002399,53.2144,148.2925,21.8445,129.5308,0.00019756,0.00027129,0.0,0 STARLINK-3860,1 52477U 22049AC  22150.25001157  .00027129  00000-0  19756-3 0  9995,2 52477  53.2144 148.2925 0002399  21.8445 129.5308 15.73142343  3929,6728.06,91.537,351.539,348.31,0.0
52477.0,STARLINK-3860,PAYLOAD,2022-05-30 14:00:01,15.73184061,0.0002427,53.2144,146.6429,20.9313,219.3083,0.00013628,0.00018536,0.0,0 STARLINK-3860,1 52477U 22049AC  22150.58334491  .00018536  00000-0  13628-3 0  9995,2 52477  53.2144 146.6429 0002427  20.9313 219.3083 15.73184061  1307,6727.941,91.534,351.43800000000016,348.173,0.0
52477.0,STARLINK-3860,PAYLOAD,2022-05-30 22:00:00,15.73175713,0.0002269,53.2149,144.9915,24.9426,304.2096,0.00061151,0.00086,0.0,0 STARLINK-3860,1 52477U 22049AC  22150.91667824  .00086000  00000-0  61151-3 0  9996,2 52477  53.2149 144.9915 0002269  24.9426 304.2096 15.73175713  1308,6727.964,91.535,351.356,348.30300000000005,0.0
